NORAD_CAT_ID,OBJECT_NAME,OBJECT_TYPE,EPOCH,MEAN_MOTION,ECCENTRICITY,INCLINATION,RA_OF_ASC_NODE,ARG_OF_PERICENTER,MEAN_ANOMALY,BSTAR,MEAN_MOTION_DOT,MEAN_MOTION_DDOT,TLE_LINE0,TLE_LINE1,TLE_LINE2,SEMIMAJOR_AXIS,PERIOD,APOGEE,PERIGEE,DECAYED
49424.0,STARLINK-3135,PAYLOAD,2023-03-10 09:50:46,15.08857659,0.0001548,53.2145,106.0206,105.8795,254.2368,0.00063938,9.907e-05,0.0,0 STARLINK-3135,1 49424U 21104S   23069.41025570  .00009907  00000-0  63938-3 0  9992,2 49424  53.2145 106.0206 0001548 105.8795 254.2368 15.08857659 74356,6917.826,95.436,540.762,538.621,0.0
49424.0,STARLINK-3135,PAYLOAD,2023-03-10 19:23:04,15.08849605,0.0001418,53.2138,104.2366,83.1161,276.9992,0.00038829,5.899e-05,0.0,0 STARLINK-3135,1 49424U 21104S   23069.80769647  .00005899  00000-0  38829-3 0  9992,2 49424  53.2138 104.2366 0001418  83.1161 276.9992 15.08849605 74419,6917.851,95.437,540.697,538.735,0.0
49424.0,STARLINK-3135,PAYLOAD,2023-03-11 11:16:57,15.08829543,0.0001571,53.2147,101.26,89.437,270.6802,0.00022683,3.323e-05,0.0,0 STARLINK-3135,1 49424U 21104S   23070.47010516  .00003323  00000-0  22683-3 0  9992,2 49424  53.2147 101.2600 0001571  89.4370 270.6802 15.08829543 74519,6917.912,95.438,540.864,538.691,0.0
49424.0,STARLINK-3135,PAYLOAD,2023-03-11 14:27:43,15.08832383,0.0001505,53.2148,100.6652,101.131,258.9852,0.00069565,0.00010798,0.0,0 STARLINK-3135,1 49424U 21104S   23070.60258576  .00010798  00000-0  69565-3 0  9991,2 49424  53.2148 100.6652 0001505 101.1310 258.9852 15.08832383 73455,6917.904,95.438,540.81,538.728,0.0
49424.0,STARLINK-3135,PAYLOAD,2023-03-12 07:56:58,15.08843987,0.0001516,53.2147,97.3922,88.4199,271.6966,0.00084958,0.0001326,0.0,0 STARLINK-3135,1 49424U 21104S   23071.33122993  .00013260  00000-0  84958-3 0  9995,2 49424  53.2147  97.3922 0001516  88.4199 271.6966 15.08843987 73562,6917.868,95.437,540.782,538.684,0.0
49424.0,STARLINK-3135,PAYLOAD,2023-03-13 12:33:53,15.08862788,0.0001688,53.2158,92.0411,88.3812,271.7373,0.0006268,9.708e-05,0.0,0 STARLINK-3135,1 49424U 21104S   23072.52354070  .00009708  00000-0  62680-3 0  9990,2 49424  53.2158  92.0411 0001688  88.3812 271.7373 15.08862788 74823,6917.811,95.436,540.843,538.508,0.0
49424.0,STARLINK-3135,PAYLOAD,2023-03-14 04:27:45,15.08835522,0.0001538,53.2154,89.0695,86.0616,274.0552,-7.2785e-05,-1.446e-05,0.0,0 STARLINK-3135,1 49424U 21104S   23073.18594845 -.00001446  00000-0 -72785-4 0  9990,2 49424  53.2154  89.0695 0001538  86.0616 274.0552 15.08835522 74922,6917.894,95.438,540.823,538.695,0.0
49424.0,STARLINK-3135,PAYLOAD,2023-03-14 07:38:32,15.08834432,0.0001509,53.2153,88.476,72.0329,288.0827,-2.4606e-05,-6.8e-06,0.0,0 STARLINK-3135,1 49424U 21104S   23073.31843000 -.00000680  00000-0 -24606-4 0  9993,2 49424  53.2153  88.4760 0001509  72.0329 288.0827 15.08834432 73862,6917.897,95.438,540.806,538.718,0.0
49424.0,STARLINK-3135,PAYLOAD,2023-03-15 04:18:32,15.08856269,0.0001365,53.2168,84.6082,88.2552,271.8597,0.00077667,0.000121,0.0,0 STARLINK-3135,1 49424U 21104S   23074.17954595  .00012100  00000-0  77667-3 0  9992,2 49424  53.2168  84.6082 0001365  88.2552 271.8597 15.08856269 75071,6917.831,95.437,540.64,538.751,0.0
49424.0,STARLINK-3135,PAYLOAD,2023-03-15 12:15:27,15.08881914,0.0001411,53.2164,83.1203,90.1809,269.9345,0.0014486,0.00022868,0.0,0 STARLINK-3135,1 49424U 21104S   23074.51073789  .00022868  00000-0  14486-2 0  9998,2 49424  53.2164  83.1203 0001411  90.1809 269.9345 15.08881914 74045,6917.752,95.435,540.593,538.641,0.0
49424.0,STARLINK-3135,PAYLOAD,2023-03-16 05:44:42,15.08849448,0.0001384,53.2163,79.8505,89.3848,270.7303,0.00042944,6.555e-05,0.0,0 STARLINK-3135,1 49424U 21104S   23075.23938323  .00006555  00000-0  42944-3 0  9998,2 49424  53.2163  79.8505 0001384  89.3848 270.7303 15.08849448 75235,6917.852,95.437,540.674,538.759,0.0
49424.0,STARLINK-3135,PAYLOAD,2023-03-16 12:06:15,15.08844425,0.0001752,53.2169,78.658,108.5027,251.6156,0.0009037,0.00014125,0.0,0 STARLINK-3135,1 49424U 21104S   23075.50434366  .00014125  00000-0  90370-3 0  9994,2 49424  53.2169  78.6580 0001752 108.5027 251.6156 15.08844425 74191,6917.867,95.437,540.944,538.52,0.0
49424.0,STARLINK-3135,PAYLOAD,2023-03-16 16:52:25,15.08827776,0.0002173,53.2164,77.7679,82.4071,277.7168,0.00018719,2.691e-05,0.0,0 STARLINK-3135,1 49424U 21104S   23075.70306798  .00002691  00000-0  18719-3 0  9995,2 49424  53.2164  77.7679 0002173  82.4071 277.7168 15.08827776 74228,6917.918,95.438,541.286,538.279,0.0
49424.0,STARLINK-3135,PAYLOAD,2023-03-16 23:13:57,15.08828472,0.0001703,53.2161,76.5797,85.9513,274.1674,0.00077906,0.00012129,0.0,0 STARLINK-3135,1 49424U 21104S   23075.96803090  .00012129  00000-0  77906-3 0  9990,2 49424  53.2161  76.5797 0001703  85.9513 274.1674 15.08828472 75341,6917.916,95.438,540.959,538.603,0.0
49424.0,STARLINK-3135,PAYLOAD,2023-03-17 10:21:40,15.08831037,0.0001299,53.2156,74.4986,94.3418,265.7722,0.00052625,8.095e-05,0.0,0 STARLINK-3135,1 49424U 21104S   23076.43171355  .00008095  00000-0  52625-3 0  9993,2 49424  53.2156  74.4986 0001299  94.3418 265.7722 15.08831037 74339,6917.908,95.438,540.671,538.874,0.0
49424.0,STARLINK-3135,PAYLOAD,2023-03-18 11:47:49,15.08860493,0.0001302,53.2152,69.7404,88.8198,271.2943,0.00082958,0.00012947,0.0,0 STARLINK-3135,1 49424U 21104S   23077.49154842  .00012947  00000-0  82958-3 0  9995,2 49424  53.2152  69.7404 0001302  88.8198 271.2943 15.08860493 75577,6917.818,95.436,540.583,538.782,0.0
49424.0,STARLINK-3135,PAYLOAD,2023-03-18 16:33:59,15.08836517,0.0001118,53.215,68.8476,90.7982,269.3138,-0.00010069,-1.89e-05,0.0,0 STARLINK-3135,1 49424U 21104S   23077.69027225 -.00001890  00000-0 -10069-3 0  9992,2 49424  53.2150  68.8476 0001118  90.7982 269.3138 15.08836517 75600,6917.891,95.438,540.529,538.983,0.0
49424.0,STARLINK-3135,PAYLOAD,2023-03-19 06:52:27,15.08848865,0.0001265,53.2154,66.1714,84.9595,275.1541,0.00056219,8.673e-05,0.0,0 STARLINK-3135,1 49424U 21104S   23078.28643075  .00008673  00000-0  56219-3 0  9996,2 49424  53.2154  66.1714 0001265  84.9595 275.1541 15.08848865 75699,6917.853,95.437,540.593,538.843,0.0
49424.0,STARLINK-3135,PAYLOAD,2023-03-19 16:24:46,15.08844786,0.0001275,53.215,64.3875,84.2473,275.8665,0.00063828,9.886e-05,0.0,0 STARLINK-3135,1 49424U 21104S   23078.68387267  .00009886  00000-0  63828-3 0  9999,2 49424  53.2150  64.3875 0001275  84.2473 275.8665 15.08844786 75751,6917.866,95.437,540.613,538.849,0.0
49424.0,STARLINK-3135,PAYLOAD,2023-03-20 08:18:37,15.08847531,0.0001417,53.2159,61.4122,96.7952,263.3201,0.00046729,7.158e-05,0.0,0 STARLINK-3135,1 49424U 21104S   23079.34627282  .00007158  00000-0  46729-3 0  9998,2 49424  53.2159  61.4122 0001417  96.7952 263.3201 15.08847531 75851,6917.857,95.437,540.703,538.742,0.0
49424.0,STARLINK-3135,PAYLOAD,2023-03-20 16:15:33,15.08841302,0.000144,53.2157,59.9258,94.2286,265.8871,0.0002168,3.164e-05,0.0,0 STARLINK-3135,1 49424U 21104S   23079.67747453  .00003164  00000-0  21680-3 0  9999,2 49424  53.2157  59.9258 0001440  94.2286 265.8871 15.08841302 75906,6917.876,95.437,540.738,538.745,0.0
49424.0,STARLINK-3135,PAYLOAD,2023-03-21 08:09:24,15.08852548,0.0001457,53.216,56.9521,101.2343,258.8813,0.00035496,5.368e-05,0.0,0 STARLINK-3135,1 49424U 21104S   23080.33987028  .00005368  00000-0  35496-3 0  9996,2 49424  53.2160  56.9521 0001457 101.2343 258.8813 15.08852548 74924,6917.842,95.437,540.715,538.699,0.0
49424.0,STARLINK-3135,PAYLOAD,2023-03-22 04:49:25,15.08843805,0.0001265,53.2162,53.0861,96.2675,263.8461,0.00018615,2.676e-05,0.0,0 STARLINK-3135,1 49424U 21104S   23081.20099402  .00002676  00000-0  18615-3 0  9996,2 49424  53.2162  53.0861 0001265  96.2675 263.8461 15.08843805 76135,6917.869,95.437,540.609,538.859,0.0
49424.0,STARLINK-3135,PAYLOAD,2023-03-22 08:00:12,15.08846234,0.0001262,53.2162,52.4912,96.8219,263.2916,0.00020062,2.907e-05,0.0,0 STARLINK-3135,1 49424U 21104S   23081.33347301  .00002907  00000-0  20062-3 0  9990,2 49424  53.2162  52.4912 0001262  96.8219 263.2916 15.08846234 75072,6917.861,95.437,540.599,538.853,0.0
49424.0,STARLINK-3135,PAYLOAD,2023-03-23 04:40:12,15.08853099,0.0001175,53.2161,48.6267,106.2672,253.845,0.00027492,4.092e-05,0.0,0 STARLINK-3135,1 49424U 21104S   23082.19458787  .00004092  00000-0  27492-3 0  9997,2 49424  53.2161  48.6267 0001175 106.2672 253.8450 15.08853099 75203,6917.84,95.437,540.518,538.893,0.0
49424.0,STARLINK-3135,PAYLOAD,2023-03-24 04:30:59,15.08864531,0.0001245,53.217,44.1673,105.4297,254.6833,0.00059174,9.148e-05,0.0,0 STARLINK-3135,1 49424U 21104S   23083.18818867  .00009148  00000-0  59174-3 0  9995,2 49424  53.2170  44.1673 0001245 105.4297 254.6833 15.08864531 76430,6917.805,95.436,540.532,538.809,0.0
49424.0,STARLINK-3135,PAYLOAD,2023-03-24 07:41:45,15.08882211,0.0001214,53.2167,43.5709,103.1152,256.9976,0.00097613,0.00015299,0.0,0 STARLINK-3135,1 49424U 21104S   23083.32066290  .00015299  00000-0  97613-3 0  9990,2 49424  53.2167  43.5709 0001214 103.1152 256.9976 15.08882211 76450,6917.751,95.435,540.456,538.777,0.0
49424.0,STARLINK-3135,PAYLOAD,2023-03-25 04:21:47,15.08837667,0.0001885,53.2186,39.7055,83.9492,276.1715,0.00010824,1.435e-05,0.0,0 STARLINK-3135,1 49424U 21104S   23084.18179735  .00001435  00000-0  10824-3 0  9990,2 49424  53.2186  39.7055 0001885  83.9492 276.1715 15.08837667 76582,6917.888,95.438,541.057,538.448,0.0
49424.0,STARLINK-3135,PAYLOAD,2023-03-25 05:57:10,15.08844309,0.0001761,53.2178,39.4085,98.8207,261.2985,0.00027669,4.119e-05,0.0,0 STARLINK-3135,1 49424U 21104S   23084.24803427  .00004119  00000-0  27669-3 0  9996,2 49424  53.2178  39.4085 0001761  98.8207 261.2985 15.08844309 76591,6917.867,95.437,540.95,538.514,0.0
49424.0,STARLINK-3135,PAYLOAD,2023-03-26 02:37:11,15.08843179,0.0002163,53.2179,35.5442,121.7455,238.3749,0.00010402,1.368e-05,0.0,0 STARLINK-3135,1 49424U 21104S   23085.10915953  .00001368  00000-0  10402-3 0  9990,2 49424  53.2179  35.5442 0002163 121.7455 238.3749 15.08843179 76726,6917.871,95.437,541.232,538.239,0.0
